STARLINK-11315 [DTC]    
1 61692U 24195F   26126.19410106 -.00003277  00000+0 -22233-4 0  9990
2 61692  53.1585 102.9092 0001155 109.8127 250.3015 15.69672864 88068
STARLINK-11366 [DTC]    
1 61693U 24195G   26126.37530054 -.00004375  00000+0 -31324-4 0  9997
2 61693  53.1585 101.9057 0001183 142.2347 217.8754 15.69671978 88091
STARLINK-11348 [DTC]    
1 61694U 24195H   26126.24303109 -.00001122  00000+0 -44039-5 0  9998
2 61694  53.1589 102.4956 0001170  56.7788 303.3342 15.69697777 88071
STARLINK-11327 [DTC]    
1 61695U 24195J   26126.36549279 -.00004183  00000+0 -29744-4 0  9997
2 61695  53.1587 101.8369 0001142 142.8217 217.2880 15.69666533 88092
STARLINK-11341 [DTC]    
1 61696U 24195K   26126.36058534 -.00005032  00000+0 -36754-4 0  9990
2 61696  53.1599 101.8030 0001787 142.9788 217.1354 15.69669345 88099
STARLINK-11346 [DTC]    
1 61697U 24195L   26126.35565900 -.00011606  00000+0 -91202-4 0  9993
2 61697  53.1575 101.7699 0001574 157.8890 202.2196 15.69673551 88090
STARLINK-11296 [DTC]    
1 61699U 24195N   26126.28220785 -.00003283  00000+0 -22298-4 0  9997
2 61699  53.1593 102.0204 0001250  84.1761 275.9399 15.69661361 88085
STARLINK-32349          
1 61700U 24195P   26126.71005691 -.00002404  00000+0 -69129-4 0  9993
2 61700  53.1622 245.9306 0001259  90.4559 269.6586 15.30173750 86067
STARLINK-32461          
1 61701U 24195Q   26125.75743438  .00001446  00000+0  53939-4 0  9990
2 61701  53.1617 249.9422 0001218  83.7604 276.3538 15.34394947 85929
STARLINK-32299          
1 61702U 24195R   26126.59580009  .00011806  00000+0  35996-3 0  9990
2 61702  53.1621 245.9311 0001387 105.3827 254.7329 15.34404462 86128
STARLINK-32335          
1 61703U 24195S   26126.83335647  .00322021  51611-4  82934-3 0  9991
2 61703  53.1345 221.7629 0013955 323.5141 200.4835 15.94537351  6046
STARLINK-32387          
1 61704U 24195T   26126.70082946  .00001950  00000+0  68869-4 0  9997
2 61704  53.1612 245.1591 0001826  71.5895 288.5306 15.34385512 86077
STARLINK-32515          
1 61705U 24195U   26126.59947087 -.00001135  00000+0 -26217-4 0  9999
2 61705  53.1592 246.6532 0001397 127.7359 232.3769 15.30177133 86049
STARLINK-32533          
1 61706U 24195V   26125.72587927  .00002337  00000+0  80322-4 0  9997
2 61706  53.1625 249.7429 0001424  94.5560 265.5605 15.34383420 85927
STARLINK-32376          
1 61707U 24196A   26126.57439065 -.00000040  00000+0  10785-4 0  9998
2 61707  53.1595 192.1444 0001157  92.1164 267.9969 15.30179063 86033
STARLINK-32402          
1 61708U 24196B   26126.60498630  .00000385  00000+0  25111-4 0  9996
2 61708  53.1613 192.3324 0001013  76.6459 283.4655 15.30190801 86026
STARLINK-32314          
1 61709U 24196C   26126.45747052  .00001582  00000+0  65544-4 0  9999
2 61709  53.1585 192.8314 0001311  90.2122 269.9029 15.30189216 86009
STARLINK-32404          
1 61710U 24196D   26126.55867150 -.00000164  00000+0  66004-5 0  9993
2 61710  53.1606 192.7567 0001065  98.9192 261.1929 15.30184190 86012
STARLINK-32312          
1 61711U 24196E   26126.45008776 -.00000759  00000+0 -13527-4 0  9996
2 61711  53.1592 192.7855 0001017  80.0618 280.0498 15.30185052 86007
STARLINK-32343          
1 61712U 24196F   26126.48280643  .00000127  00000+0  16428-4 0  9995
2 61712  53.1588 192.9926 0000951  82.8903 277.2205 15.30179151 86004
STARLINK-32467          
1 61713U 24196G   26126.37433567 -.00000899  00000+0 -18243-4 0  9994
2 61713  53.1617 193.7425 0001239  72.5083 287.6053 15.30179683 85988
STARLINK-32440          
1 61714U 24196H   26126.67241463  .00001187  00000+0  52231-4 0  9994
2 61714  53.1592 192.0396 0001227  79.1211 280.9928 15.30185916 86033
STARLINK-32459          
1 61715U 24196J   26126.59445383 -.00001061  00000+0 -23713-4 0  9999
2 61715  53.1593 192.2627 0001096  71.5197 288.5922 15.30173892 86024
STARLINK-32465          
1 61716U 24196K   26126.36905044 -.00001477  00000+0 -37750-4 0  9997
2 61716  53.1601 193.7107 0001547  61.4265 298.6891 15.30197202 85981
STARLINK-32457          
1 61717U 24196L   26126.46063693 -.00002755  00000+0 -81011-4 0  9993
2 61717  53.1573 192.8462 0001060  90.3035 269.8087 15.30173632 86002
STARLINK-32591          
1 61718U 24196M   26126.52538309  .00000594  00000+0  28715-4 0  9991
2 61718  53.1598 179.7254 0001233  98.8906 261.2236 15.34384430 86191
STARLINK-32344          
1 61719U 24196N   26126.62081836 -.00000976  00000+0 -20826-4 0  9992
2 61719  53.1606 192.4286 0001219 102.7497 257.3640 15.30186684 86027
STARLINK-32322          
1 61720U 24196P   26126.56816641 -.00000660  00000+0 -10154-4 0  9990
2 61720  53.1610 192.8110 0001260 102.6204 257.4938 15.30184743 86019
STARLINK-32469          
1 61721U 24196Q   26126.65024582  .00003889  00000+0  14336-3 0  9995
2 61721  53.1575 191.8971 0001521  82.3813 277.7361 15.30198038 86033
STARLINK-32438          
1 61722U 24196R   26126.56183605 -.00000722  00000+0 -12250-4 0  9997
2 61722  53.1609 192.7726 0001146  85.7692 274.3440 15.30184388 86017
STARLINK-32540          
1 61723U 24196S   26126.49646814  .00000434  00000+0  26772-4 0  9998
2 61723  53.1609 157.0154 0001247  66.9323 293.1809 15.30186474 86501
STARLINK-32528          
1 61724U 24196T   26126.57133935 -.00002177  00000+0 -61436-4 0  9997
2 61724  53.1617 192.8317 0001355  92.9553 267.1603 15.30172935 84815
STARLINK-32573          
1 61725U 24196U   26126.48702364 -.00001113  00000+0 -25484-4 0  9998
2 61725  53.1588 193.0155 0001226  95.3267 264.7874 15.30187034 86004
STARLINK-32478          
1 61726U 24196V   26126.54494926 -.00000367  00000+0 -28576-6 0  9995
2 61726  53.1591 192.6656 0001083  89.7922 270.3203 15.30189069 86016
STARLINK-32511          
1 61727U 24196W   26126.21204310 -.00000435  00000+0 -25524-5 0  9991
2 61727  53.1605 194.1405 0001216  77.6540 282.4597 15.30189773 85967
STARLINK-32475          
1 61728U 24196X   26126.59760463  .00000686  00000+0  35309-4 0  9996
2 61728  53.1582 192.2776 0001097  73.9450 286.1671 15.30182600 86022
STARLINK-32442          
1 61729U 24196Y   26126.60076992  .00000034  00000+0  13279-4 0  9995
2 61729  53.1602 192.2975 0001212  74.9211 285.1924 15.30184794 86028
COSMOS 2579             
1 61730U 24197A   26126.85935365  .00003686  00000+0  15245-3 0  9993
2 61730  97.5588  50.4635 0002466 124.3135 235.8336 15.24613630 84172
DSN-3 (KIRAMEKI-3)      
1 61733U 24198A   26126.86112528 -.00000242  00000+0  00000+0 0  9991
2 61733   0.0014   3.8384 0000544  41.8340 273.1225  1.00272213  5506
IONOSFERA-M 1           
1 61735U 24199A   26126.84202900  .00000051  00000+0  42422-4 0  9992
2 61735  98.7226   0.4396 0000156 122.6167 237.5026 14.22746594121820
IONOSFERA-M 2           
1 61736U 24199B   26126.87642142  .00000048  00000+0  41211-4 0  9993
2 61736  98.7225   0.3846 0002012  84.2333 275.9074 14.22749481124954
SITRO-AIS 16            
1 61737U 24199C   26126.79503485  .00002170  00000+0  19121-3 0  9993
2 61737  97.3273 328.7063 0005939 191.3923 168.7166 14.97395763125625
SITRO-AIS 15            
1 61738U 24199D   26126.84660073  .00003171  00000+0  27713-3 0  9995
2 61738  97.3272 328.7908 0005874 187.5640 172.5495 14.97412325125637
SITRO-AIS 21            
1 61739U 24199E   26126.84493684  .00001964  00000+0  18443-3 0  9996
2 61739  97.3281 327.3520 0012033 195.2842 164.8018 14.94955032125570
SITRO-AIS 22            
1 61740U 24199F   26126.82861289  .00002669  00000+0  24412-3 0  9992
2 61740  97.3274 327.5241 0012182 194.8139 165.2728 14.95709593125736
SITRO-AIS 24            
1 61741U 24199G   26126.82062278  .00002755  00000+0  25030-3 0  9997
2 61741  97.3274 327.5436 0012052 196.7306 163.3520 14.95953420125702
SITRO-AIS 23            
1 61742U 24199H   26126.81672770  .00002217  00000+0  20349-3 0  9992
2 61742  97.3272 327.5410 0012001 196.8211 163.2615 14.95735663125580
SITRO-AIS 13            
1 61743U 24199J   26126.84265034  .00003340  00000+0  28976-3 0  9999
2 61743  97.3264 328.9343 0005761 187.8183 172.2951 14.97670794125808
2024-199K               
1 61744U 24199K   26126.81382891  .00024092  00000+0  43398-3 0  9990
2 61744  97.3033   1.4623 0009947  73.5890 286.6454 15.49742085127950
POLYTECH UNIVERSE-5     
1 61745U 24199L   26126.87762231  .00040324  00000+0  54549-3 0  9993
2 61745  97.3016   3.4763 0007850  75.3446 284.8680 15.57590112131246
COLIBRI-S (RS67S)       
1 61746U 24199M   26126.85348292  .00017552  00000+0  36009-3 0  9997
2 61746  97.3046   0.3741 0010616  76.0023 284.2406 15.46040557131022
POLYTECH UNIVERSE-4     
1 61747U 24199N   26126.85346767  .00015128  00000+0  33127-3 0  9998
2 61747  97.3052 359.7757 0011083  74.9432 285.3042 15.44145684130985
SITRO-AIS 44            
1 61748U 24199P   26126.80962671  .00057538  00000+0  64199-3 0  9996
2 61748  97.2949   4.5103 0007266  79.4773 280.7303 15.62592211131315
VIZARD-ION (RS68S)      
1 61749U 24199Q   26126.79054781  .00027150  00000+0  44499-3 0  9997
2 61749  97.3045   2.2697 0008630  74.1519 286.0685 15.52398441131144
2024-199R               
1 61750U 24199R   26126.85885257  .00027147  00000+0  44489-3 0  9991
2 61750  97.3019   1.8029 0008971  83.3299 276.8975 15.52398132131131
2024-199S               
1 61751U 24199S   26126.86424088  .00007832  00000+0  22443-3 0  9999
2 61751  97.3049 356.6310 0011715  95.4016 264.8565 15.36114881130792
SITRO-AIS 14            
1 61752U 24199T   26126.82799273  .00002567  00000+0  22497-3 0  9996
2 61752  97.3256 328.8113 0006006 192.6097 167.4977 14.97461265128936
HORS 3 (RS81S)          
1 61753U 24199U   26126.80049014  .00029823  00000+0  49100-3 0  9990
2 61753  97.3033   1.8950 0008869  81.5821 278.6437 15.52252596131136
HORS 4 (RS82S)          
1 61754U 24199V   26126.80895519  .00036609  00000+0  52404-3 0  9991
2 61754  97.2982   2.8677 0008061  78.8231 281.3930 15.56079135131201
